NORAD_CAT_ID,OBJECT_NAME,OBJECT_TYPE,EPOCH,MEAN_MOTION,ECCENTRICITY,INCLINATION,RA_OF_ASC_NODE,ARG_OF_PERICENTER,MEAN_ANOMALY,BSTAR,MEAN_MOTION_DOT,MEAN_MOTION_DDOT,TLE_LINE0,TLE_LINE1,TLE_LINE2,SEMIMAJOR_AXIS,PERIOD,APOGEE,PERIGEE,DECAYED
54080.0,STARLINK-5160,PAYLOAD,2023-01-06 11:00:02,15.08826386,0.0001624,53.2176,139.1013,52.1672,307.9467,-0.00020996,-3.627e-05,0.0,0 STARLINK-5160,1 54080U 22136AF  23006.45836229 -.00003627  00000-0 -20996-3 0  9990,2 54080  53.2176 139.1013 0001624  52.1672 307.9467 15.08826386 12531,6917.922,95.438,540.91,538.664,0.0
54080.0,STARLINK-5160,PAYLOAD,2023-01-07 09:15:25,15.08832038,0.0001636999999999,53.217,134.9388,55.875,304.2398,5.0354e-06,-2.08e-06,0.0,0 STARLINK-5160,1 54080U 22136AF  23007.38571542 -.00000208  00000-0  50354-5 0  9991,2 54080  53.2170 134.9388 0001637  55.8750 304.2398 15.08832038 12673,6917.905,95.438,540.9019999999998,538.637,0.0
54080.0,STARLINK-5160,PAYLOAD,2023-01-07 15:36:58,15.08834233,0.0001685,53.2174,133.7488,56.223,303.8922,2.8364e-05,1.63e-06,0.0,0 STARLINK-5160,1 54080U 22136AF  23007.65067532  .00000163  00000-0  28364-4 0  9994,2 54080  53.2174 133.7488 0001685  56.2230 303.8922 15.08834233 12235,6917.898,95.438,540.929,538.597,0.0
54080.0,STARLINK-5160,PAYLOAD,2023-01-08 10:41:36,15.08827638,0.0001847,53.217,130.1805,58.1619,301.9552,0.00020629,2.995e-05,0.0,0 STARLINK-5160,1 54080U 22136AF  23008.44556105  .00002995  00000-0  20629-3 0  9991,2 54080  53.2170 130.1805 0001847  58.1619 301.9552 15.08827638 12832,6917.9180000000015,95.438,541.061,538.505,0.0
54080.0,STARLINK-5160,PAYLOAD,2023-01-08 17:03:08,15.08832156,0.0001792,53.2176,128.9899,54.9325,305.1835,0.000225,3.294e-05,0.0,0 STARLINK-5160,1 54080U 22136AF  23008.71052001  .00003294  00000-0  22500-3 0  9990,2 54080  53.2176 128.9899 0001792  54.9325 305.1835 15.08832156 12395,6917.904,95.438,541.009,538.53,0.0
54080.0,STARLINK-5160,PAYLOAD,2023-01-09 07:21:36,15.08845719,0.0001672,53.2179,126.3142,49.5261,310.5876,9.099e-05,1.161e-05,0.0,0 STARLINK-5160,1 54080U 22136AF  23009.30667658  .00001161  00000-0  90990-4 0  9996,2 54080  53.2179 126.3142 0001672  49.5261 310.5876 15.08845719 12964,6917.863,95.437,540.885,538.571,0.0
54080.0,STARLINK-5160,PAYLOAD,2023-01-09 10:32:22,15.08847986,0.0001705,53.2179,125.7198,49.7886,310.3255,0.00010798,1.431e-05,0.0,0 STARLINK-5160,1 54080U 22136AF  23009.43915448  .00001431  00000-0  10798-3 0  9990,2 54080  53.2179 125.7198 0001705  49.7886 310.3255 15.08847986 12507,6917.856,95.437,540.9,538.5409999999998,0.0
54080.0,STARLINK-5160,PAYLOAD,2023-01-10 11:58:33,15.08838547,0.0001696,53.2175,120.9633,47.65600000000001,312.4576,4.2059e-05,3.81e-06,0.0,0 STARLINK-5160,1 54080U 22136AF  23010.49900000  .00000381  00000-0  42059-4 0  9995,2 54080  53.2175 120.9633 0001696  47.6560 312.4576 15.08838547 13142,6917.885,95.438,540.923,538.577,0.0
54080.0,STARLINK-5160,PAYLOAD,2023-01-11 13:24:44,15.0882608,0.0002025,53.2173,116.2057,42.0801,318.0346,0.00010147,1.327e-05,0.0,0 STARLINK-5160,1 54080U 22136AF  23011.55885064  .00001327  00000-0  10147-3 0  9998,2 54080  53.2173 116.2057 0002025  42.0801 318.0346 15.08826080 13306,6917.923000000002,95.438,541.189,538.387,0.0
54080.0,STARLINK-5160,PAYLOAD,2023-01-12 10:04:45,15.08829934,0.0001895,53.2173,112.3414,46.4152,313.6997,2.8597e-05,1.67e-06,0.0,0 STARLINK-5160,1 54080U 22136AF  23012.41997288  .00000167  00000-0  28597-4 0  9996,2 54080  53.2173 112.3414 0001895  46.4152 313.6997 15.08829934 12955,6917.911,95.438,541.087,538.465,0.0
54080.0,STARLINK-5160,PAYLOAD,2023-01-13 13:06:18,15.08844211,0.000152,53.2174,107.2849,63.1157,296.999,0.00016932,2.408e-05,0.0,0 STARLINK-5160,1 54080U 22136AF  23013.54604738  .00002408  00000-0  16932-3 0  9995,2 54080  53.2174 107.2849 0001520  63.1157 296.9990 15.08844211 13601,6917.868,95.437,540.784,538.681,0.0
54080.0,STARLINK-5160,PAYLOAD,2023-01-13 16:17:04,15.08843287,0.00016,53.2174,106.69,62.8323,297.2832,0.00020888,3.038e-05,0.0,0 STARLINK-5160,1 54080U 22136AF  23013.67852616  .00003038  00000-0  20888-3 0  9994,2 54080  53.2174 106.6900 0001600  62.8323 297.2832 15.08843287 13142,6917.87,95.437,540.842,538.628,0.0
54080.0,STARLINK-5160,PAYLOAD,2023-01-14 06:35:34,15.08833505,0.0001664,53.217,104.0115,79.2715,280.8464,6.6226e-05,7.66e-06,0.0,0 STARLINK-5160,1 54080U 22136AF  23014.27469912  .00000766  00000-0  66226-4 0  9996,2 54080  53.2170 104.0115 0001664  79.2715 280.8464 15.08833505 13719,6917.9,95.438,540.9159999999999,538.614,0.0
54080.0,STARLINK-5160,PAYLOAD,2023-01-14 12:57:05,15.08845092,0.0001409999999999,53.2173,102.8258,70.957,289.1575,0.00015418,2.167e-05,0.0,0 STARLINK-5160,1 54080U 22136AF  23014.53964985  .00002167  00000-0  15418-3 0  9998,2 54080  53.2173 102.8258 0001410  70.9570 289.1575 15.08845092 13755,6917.865,95.437,540.705,538.754,0.0
54080.0,STARLINK-5160,PAYLOAD,2023-01-14 22:29:25,15.08843984,0.0001256,53.2169,101.0407,74.1667,285.9464,-2.5884e-05,-7.000000000000001e-06,0.0,0 STARLINK-5160,1 54080U 22136AF  23014.93709899 -.00000700  00000-0 -25884-4 0  9995,2 54080  53.2169 101.0407 0001256  74.1667 285.9464 15.08843984 13814,6917.868,95.437,540.602,538.864,0.0
54080.0,STARLINK-5160,PAYLOAD,2023-01-15 12:47:53,15.08843934,0.000122,53.2178,98.3638,97.6296,262.4835,-2.253e-05,-6.46e-06,0.0,0 STARLINK-5160,1 54080U 22136AF  23015.53325926 -.00000646  00000-0 -22530-4 0  9991,2 54080  53.2178  98.3638 0001220  97.6296 262.4835 15.08843934 13421,6917.868,95.437,540.577,538.889,0.0
54080.0,STARLINK-5160,PAYLOAD,2023-01-15 22:20:12,15.0884726,0.0001538,53.2175,96.5793,80.5657,279.5509,1.1436e-05,-1.06e-06,0.0,0 STARLINK-5160,1 54080U 22136AF  23015.93069730 -.00000106  00000-0  11436-4 0  9996,2 54080  53.2175  96.5793 0001538  80.5657 279.5509 15.08847260 13483,6917.858,95.437,540.7869999999999,538.659,0.0
54080.0,STARLINK-5160,PAYLOAD,2023-01-16 12:38:38,15.08871635,0.0001049,53.2168,93.9071,106.4722,253.6385,0.00023706,3.4899999999999995e-05,0.0,0 STARLINK-5160,1 54080U 22136AF  23016.52683071  .00003490  00000-0  23706-3 0  9992,2 54080  53.2168  93.9071 0001049 106.4722 253.6385 15.08871635 14055,6917.784000000001,95.436,540.374,538.923,0.0
54080.0,STARLINK-5160,PAYLOAD,2023-01-16 22:11:00,15.08831853,0.0001672,53.2174,92.1226,70.8292,289.2881,-5.8692e-06,-3.81e-06,0.0,0 STARLINK-5160,1 54080U 22136AF  23016.92430581 -.00000381  00000-0 -58692-5 0  9994,2 54080  53.2174  92.1226 0001672  70.8292 289.2881 15.08831853 14114,6917.905,95.438,540.927,538.614,0.0
54080.0,STARLINK-5160,PAYLOAD,2023-01-17 10:54:07,15.08803987,0.0001319,53.2178,89.7421,73.8382,286.2756,-8.942600000000001e-05,-1.709e-05,0.0,0 STARLINK-5160,1 54080U 22136AF  23017.45425241 -.00001709  00000-0 -89426-4 0  9993,2 54080  53.2178  89.7421 0001319  73.8382 286.2756 15.08803987 14191,6917.99,95.44,540.768,538.943,0.0
54080.0,STARLINK-5160,PAYLOAD,2023-01-17 23:37:11,15.08833863,0.0001069,53.2188,87.3611,73.5447,286.5663,-1.8596e-05,-5.84e-06,0.0,0 STARLINK-5160,1 54080U 22136AF  23017.98415562 -.00000584  00000-0 -18596-4 0  9996,2 54080  53.2188  87.3611 0001069  73.5447 286.5663 15.08833863 14273,6917.899,95.438,540.504,539.025,0.0
54080.0,STARLINK-5160,PAYLOAD,2023-01-18 10:44:50,15.08864649,0.0001137999999999,53.2184,85.2811,65.6277,294.4834,0.00012988,1.781e-05,0.0,0 STARLINK-5160,1 54080U 22136AF  23018.44780894  .00001781  00000-0  12988-3 0  9997,2 54080  53.2184  85.2811 0001138  65.6277 294.4834 15.08864649 14340,6917.805,95.436,540.457,538.883,0.0
54080.0,STARLINK-5160,PAYLOAD,2023-01-18 12:20:12,15.08881798,0.0001171,53.2186,84.9825,77.2853,282.827,0.00015105,2.12e-05,0.0,0 STARLINK-5160,1 54080U 22136AF  23018.51403520  .00002120  00000-0  15105-3 0  9995,2 54080  53.2186  84.9825 0001171  77.2853 282.8270 15.08881798 13875,6917.753000000001,95.435,540.428,538.808,0.0
54080.0,STARLINK-5160,PAYLOAD,2023-01-18 21:52:32,15.08865495,0.0001154,53.2191,83.2,68.2617,291.8498,2.2307e-05,6.7e-07,0.0,0 STARLINK-5160,1 54080U 22136AF  23018.91148394  .00000067  00000-0  22307-4 0  9995,2 54080  53.2191  83.2000 0001154  68.2617 291.8498 15.08865495 14416,6917.802,95.436,540.466,538.869,0.0
54080.0,STARLINK-5160,PAYLOAD,2023-01-19 04:14:06,15.08826234,0.0001489,53.2176,82.0104,72.0886,288.0268,0.00026347,3.906e-05,0.0,0 STARLINK-5160,1 54080U 22136AF  23019.17646600  .00003906  00000-0  26347-3 0  9999,2 54080  53.2176  82.0104 0001489  72.0886 288.0268 15.08826234 14458,6917.922,95.438,540.818,538.757,0.0
54080.0,STARLINK-5160,PAYLOAD,2023-01-19 10:35:38,15.0883601,0.0001717,53.2171,80.8198,79.1731,280.9454,0.00031778,4.773e-05,0.0,0 STARLINK-5160,1 54080U 22136AF  23019.44142007  .00004773  00000-0  31778-3 0  9998,2 54080  53.2171  80.8198 0001717  79.1731 280.9454 15.08836010 14498,6917.893,95.438,540.945,538.57,0.0
54080.0,STARLINK-5160,PAYLOAD,2023-01-19 12:11:01,15.08848508,0.0001027,53.2184,80.5212,76.5874,283.5233,0.00015668,2.207e-05,0.0,0 STARLINK-5160,1 54080U 22136AF  23019.50765715  .00002207  00000-0  15668-3 0  9992,2 54080  53.2184  80.5212 0001027  76.5874 283.5233 15.08848508 14027,6917.854,95.437,540.43,539.009,0.0
54080.0,STARLINK-5160,PAYLOAD,2023-01-20 10:26:25,15.08850213,0.0001097999999999,53.2183,76.3592,92.0847,268.027,-9.3402e-05,-1.774e-05,0.0,0 STARLINK-5160,1 54080U 22136AF  23020.43502085 -.00001774  00000-0 -93402-4 0  9998,2 54080  53.2183  76.3592 0001098  92.0847 268.0270 15.08850213 14161,6917.849,95.437,540.474,538.955,0.0
54080.0,STARLINK-5160,PAYLOAD,2023-01-20 19:58:44,15.08850081,0.0001259,53.2189,74.5739,87.5501,272.5635,-0.00020358,-3.527e-05,0.0,0 STARLINK-5160,1 54080U 22136AF  23020.83246108 -.00003527  00000-0 -20358-3 0  9990,2 54080  53.2189  74.5739 0001259  87.5501 272.5635 15.08850081 14703,6917.85,95.437,540.586,538.844,0.0
